[{"OBJECT_NAME":"NUSAT-48 (HENRIETTA LEAVITT)","OBJECT_ID":"2024-149AG","EPOCH":"2026-03-09T19:19:17.269536","MEAN_MOTION":15.29812597,"ECCENTRICITY":0.00027538,"INCLINATION":97.3923,"RA_OF_ASC_NODE":150.8264,"ARG_OF_PERICENTER":263.3026,"MEAN_ANOMALY":96.7901,"EPHEMERIS_TYPE":0,"CLASSIFICATION_TYPE":"U","NORAD_CAT_ID":60498,"ELEMENT_SET_NO":999,"REV_AT_EPOCH":8694,"BSTAR":0.00045211745,"MEAN_MOTION_DOT":0.00012988,"MEAN_MOTION_DDOT":0},{"OBJECT_NAME":"STARLINK-36153","OBJECT_ID":"2025-286K","EPOCH":"2026-03-09T23:28:22.105632","MEAN_MOTION":15.30246946,"ECCENTRICITY":0.0001137,"INCLINATION":53.1615,"RA_OF_ASC_NODE":356.9192,"ARG_OF_PERICENTER":140.1263,"MEAN_ANOMALY":219.9822,"EPHEMERIS_TYPE":0,"CLASSIFICATION_TYPE":"U","NORAD_CAT_ID":66934,"ELEMENT_SET_NO":999,"REV_AT_EPOCH":1546,"BSTAR":0.001059716,"MEAN_MOTION_DOT":0.00031204,"MEAN_MOTION_DDOT":0}]
